NORAD_CAT_ID,OBJECT_NAME,OBJECT_TYPE,EPOCH,MEAN_MOTION,ECCENTRICITY,INCLINATION,RA_OF_ASC_NODE,ARG_OF_PERICENTER,MEAN_ANOMALY,BSTAR,MEAN_MOTION_DOT,MEAN_MOTION_DDOT,TLE_LINE0,TLE_LINE1,TLE_LINE2,SEMIMAJOR_AXIS,PERIOD,APOGEE,PERIGEE,DECAYED
53838.0,STARLINK-4773,PAYLOAD,2022-12-10 14:00:01,15.19639142,0.0001252999999999,53.2174,214.5964,85.9359,1.2542,-0.057681,-0.01147814,0.0,0 STARLINK-4773,1 53838U 22114W   22344.58334491 -.01147814  00000-0 -57681-1 0  9995,2 53838  53.2174 214.5964 0001253  85.9359   1.2542 15.19639142  1301,6885.066999999999,94.759,507.795,506.07,0.0
53838.0,STARLINK-4773,PAYLOAD,2022-12-11 00:00:00,15.18622117,0.0001473,53.2175,212.6982,75.2839,131.8463,-0.059391,-0.01147395,0.0,0 STARLINK-4773,1 53838U 22114W   22345.00001157 -.01147395  00000-0 -59391-1 0  9997,2 53838  53.2175 212.6982 0001473  75.2839 131.8463 15.18622117  1305,6888.141,94.823,511.021,508.991,0.0
53838.0,STARLINK-4773,PAYLOAD,2022-12-11 08:00:01,15.17810225,0.0001403,53.2175,211.1787,75.1389,154.9081,-0.060997,-0.01150708,0.0,0 STARLINK-4773,1 53838U 22114W   22345.33335648 -.01150708  00000-0 -60997-1 0  9994,2 53838  53.2175 211.1787 0001403  75.1389 154.9081 15.17810225 13622,6890.597,94.874,513.429,511.495,0.0
53838.0,STARLINK-4773,PAYLOAD,2022-12-11 14:00:01,15.17198979,0.0001395999999999,53.2174,210.0406,89.8399,66.6427,-0.0619929999999999,-0.01149158,0.0,0 STARLINK-4773,1 53838U 22114W   22345.58334491 -.01149158  00000-0 -61993-1 0  9990,2 53838  53.2174 210.0406 0001396  89.8399  66.6427 15.17198979  1301,6892.448,94.912,515.275,513.351,0.0
53838.0,STARLINK-4773,PAYLOAD,2022-12-11 22:00:01,15.16384114,0.0001511,53.2173,208.5276,69.3548,108.3324,-0.063361,-0.01147466,0.0,0 STARLINK-4773,1 53838U 22114W   22345.91668981 -.01147466  00000-0 -63361-1 0  9992,2 53838  53.2173 208.5276 0001511  69.3548 108.3324 15.16384114  1302,6894.917,94.963,517.8240000000002,515.74,0.0
53838.0,STARLINK-4773,PAYLOAD,2022-12-12 08:00:01,15.15368977,0.0001302,53.2175,206.6356,72.4802,220.1961,-0.06543,-0.0115069,0.0,0 STARLINK-4773,1 53838U 22114W   22346.33334491 -.01150690  00000-0 -65430-1 0  9997,2 53838  53.2175 206.6356 0001302  72.4802 220.1961 15.15368977 13770,6897.996,95.026,520.759,518.962,0.0
53838.0,STARLINK-4773,PAYLOAD,2022-12-12 14:00:01,15.14757039,0.0001458,53.2173,205.5018,74.3368,142.6383,-0.066384,-0.01147578,0.0,0 STARLINK-4773,1 53838U 22114W   22346.58334491 -.01147578  00000-0 -66384-1 0  9994,2 53838  53.2173 205.5018 0001458  74.3368 142.6383 15.14757039  1303,6899.853,95.065,522.724,520.712,0.0
53838.0,STARLINK-4773,PAYLOAD,2022-12-12 22:00:00,15.13941969,0.0001576999999999,53.2173,203.9945,60.778,174.405,-0.067808,-0.01145581,0.0,0 STARLINK-4773,1 53838U 22114W   22346.91667824 -.01145581  00000-0 -67808-1 0  9994,2 53838  53.2173 203.9945 0001577  60.7780 174.4050 15.13941969  1303,6902.33,95.116,525.283,523.106,0.0
53838.0,STARLINK-4773,PAYLOAD,2022-12-13 06:00:00,15.13130109,0.0001357,53.2173,202.4865,84.8419,167.5717,-0.06959,-0.01148718,0.0,0 STARLINK-4773,1 53838U 22114W   22347.25001157 -.01148718  00000-0 -69590-1 0  9998,2 53838  53.2173 202.4865 0001357  84.8419 167.5717 15.13130109 13919,6904.7980000000025,95.167,527.6,525.726,0.0
53838.0,STARLINK-4773,PAYLOAD,2022-12-13 14:00:01,15.12314529,0.0001443,53.2173,200.9799,65.5352,203.132,-0.070953,-0.01144983,0.0,0 STARLINK-4773,1 53838U 22114W   22347.58334491 -.01144983  00000-0 -70953-1 0  9999,2 53838  53.2173 200.9799 0001443  65.5352 203.1320 15.12314529  1302,6907.28,95.218,530.1419999999998,528.149,0.0
53838.0,STARLINK-4773,PAYLOAD,2022-12-13 22:00:00,15.11500807,0.0001363,53.2173,199.4784,81.3158,202.6253,-0.072617,-0.01145385,0.0,0 STARLINK-4773,1 53838U 22114W   22347.91667824 -.01145385  00000-0 -72617-1 0  9991,2 53838  53.2173 199.4784 0001363  81.3158 202.6253 15.11500807  1303,6909.759,95.27,532.566,530.682,0.0
53838.0,STARLINK-4773,PAYLOAD,2022-12-14 06:00:00,15.10688915,0.0001386999999999,53.2173,197.9759,64.1906,234.0475,-0.07452,-0.01148807,0.0,0 STARLINK-4773,1 53838U 22114W   22348.25001157 -.01148807  00000-0 -74520-1 0  9997,2 53838  53.2173 197.9759 0001387  64.1906 234.0475 15.10688915 14062,6912.235,95.321,535.058,533.141,0.0
53838.0,STARLINK-4773,PAYLOAD,2022-12-14 14:00:01,15.09794425,0.0001712,53.2169,196.4754,54.7764,256.7947,-0.061625,-0.00930469,0.0,0 STARLINK-4773,1 53838U 22114W   22348.58334491 -.00930469  00000-0 -61625-1 0  9997,2 53838  53.2169 196.4754 0001712  54.7764 256.7947 15.09794425  1305,6914.965,95.377,538.013,535.646,0.0
53838.0,STARLINK-4773,PAYLOAD,2022-12-14 22:00:00,15.09013449,0.0001546,53.2171,194.9794,79.3269,244.5891,-0.016944,-0.00261544,0.0,0 STARLINK-4773,1 53838U 22114W   22348.91667824 -.00261544  00000-0 -16944-1 0  9998,2 53838  53.2171 194.9794 0001546  79.3269 244.5891 15.09013449  1306,6917.35,95.427,540.285,538.146,0.0
53838.0,STARLINK-4773,PAYLOAD,2022-12-15 02:00:01,15.08830436,0.0001476,53.2172,194.2309,75.0946,74.7136,0.00067486,0.00010466,0.0,0 STARLINK-4773,1 53838U 22114W   22349.08334491  .00010466  00000-0  67486-3 0  9990,2 53838  53.2172 194.2309 0001476  75.0946  74.7136 15.08830436 14197,6917.91,95.438,540.7959999999998,538.754,0.0
53838.0,STARLINK-4773,PAYLOAD,2022-12-15 14:00:01,15.08882414,0.0001436,53.2143,191.9853,70.6121,276.594,0.00082598,0.00012897,0.0,0 STARLINK-4773,1 53838U 22114W   22349.58334491  .00012897  00000-0  82598-3 0  9996,2 53838  53.2143 191.9853 0001436  70.6121 276.5940 15.08882414  1302,6917.751,95.435,540.609,538.622,0.0
53838.0,STARLINK-4773,PAYLOAD,2022-12-15 16:00:00,15.08913883,0.000145,53.2142,191.6117,67.6759,12.4345,-0.0037374,-0.00059398,0.0,0 STARLINK-4773,1 53838U 22114W   22349.66667824 -.00059398  00000-0 -37374-2 0  9994,2 53838  53.2142 191.6117 0001450  67.6759  12.4345 15.08913883 14282,6917.655,95.433,540.523,538.5169999999998,0.0
53838.0,STARLINK-4773,PAYLOAD,2022-12-15 22:00:00,15.08849707,0.0001523,53.2143,190.4906,61.2547,297.571,-0.004278,-0.0006775,0.0,0 STARLINK-4773,1 53838U 22114W   22349.91667824 -.00067750  00000-0 -42780-2 0  9990,2 53838  53.2143 190.4906 0001523  61.2547 297.5710 15.08849707  1306,6917.851,95.437,540.769,538.6619999999998,0.0
53838.0,STARLINK-4773,PAYLOAD,2022-12-16 04:00:00,15.08836384,0.0001455,53.2141,189.3678,61.317,216.1928,-0.0064432,-0.00101381,0.0,0 STARLINK-4773,1 53838U 22114W   22350.16667824 -.00101381  00000-0 -64432-2 0  9996,2 53838  53.2141 189.3678 0001455  61.3170 216.1928 15.08836384 14358,6917.891,95.438,540.763,538.75,0.0
53838.0,STARLINK-4773,PAYLOAD,2022-12-16 14:00:01,15.087556,0.0001391,53.2145,187.4963,71.5523,310.3804,0.0061406,0.00098581,0.0,0 STARLINK-4773,1 53838U 22114W   22350.58334491  .00098581  00000-0  61406-2 0  9996,2 53838  53.2145 187.4963 0001391  71.5523 310.3804 15.08755600  1304,6918.138000000001,95.443,540.966,539.0409999999998,0.0
53838.0,STARLINK-4773,PAYLOAD,2022-12-16 16:00:00,15.0878491,0.0001365,53.2144,187.1226,68.5493,46.2561,0.0039373,0.00062838,0.0,0 STARLINK-4773,1 53838U 22114W   22350.66667824  .00062838  00000-0  39373-2 0  9998,2 53838  53.2144 187.1226 0001365  68.5493  46.2561 15.08784910 14434,6918.049,95.441,540.8580000000002,538.969,0.0
53838.0,STARLINK-4773,PAYLOAD,2022-12-16 22:00:00,15.08818383,0.0001373,53.2144,186.0017,59.017,334.4518,0.0019216,0.00030409,0.0,0 STARLINK-4773,1 53838U 22114W   22350.91667824  .00030409  00000-0  19216-2 0  9999,2 53838  53.2144 186.0017 0001373  59.0170 334.4518 15.08818383  1304,6917.946,95.439,540.761,538.862,0.0
53838.0,STARLINK-4773,PAYLOAD,2022-12-17 14:00:01,15.08851839,0.0001236,53.2142,183.0072,69.3309,347.3823,-6.5538e-07,-2.98e-06,0.0,0 STARLINK-4773,1 53838U 22114W   22351.58335648 -.00000298  00000-0 -65538-6 0  9996,2 53838  53.2142 183.0072 0001236  69.3309 347.3823 15.08851839  1301,6917.844,95.437,540.564,538.854,0.0
53838.0,STARLINK-4773,PAYLOAD,2022-12-17 22:00:00,15.08781831,0.0001338,53.2158,181.5125,64.1099,4.1637,0.011569,0.00188502,0.0,0 STARLINK-4773,1 53838U 22114W   22351.91667824  .00188502  00000-0  11569-1 0  9990,2 53838  53.2158 181.5125 0001338  64.1099   4.1637 15.08781831  1307,6918.058000000001,95.441,540.849,538.998,0.0
53838.0,STARLINK-4773,PAYLOAD,2022-12-18 05:38:52,15.0884693,0.0001354,53.2153,180.0801,64.6055,295.5077,1.047e-05,-1.21e-06,0.0,0 STARLINK-4773,1 53838U 22114W   22352.23532938 -.00000121  00000-0  10470-4 0  9997,2 53838  53.2153 180.0801 0001354  64.6055 295.5077 15.08846930 15213,6917.859,95.437,540.661,538.788,0.0
53838.0,STARLINK-4773,PAYLOAD,2022-12-18 21:32:44,15.08829386,0.000138,53.2154,177.1063,68.3608,291.7531,0.0003653,5.529e-05,0.0,0 STARLINK-4773,1 53838U 22114W   22352.89773385  .00005529  00000-0  36530-3 0  9992,2 53838  53.2154 177.1063 0001380  68.3608 291.7531 15.08829386 15315,6917.913000000001,95.438,540.7330000000002,538.823,0.0
53838.0,STARLINK-4773,PAYLOAD,2022-12-19 05:29:39,15.08840934,0.0001358,53.2152,175.6194,62.9476,297.1655,0.00027993,4.17e-05,0.0,0 STARLINK-4773,1 53838U 22114W   22353.22893065  .00004170  00000-0  27993-3 0  9992,2 53838  53.2152 175.6194 0001358  62.9476 297.1655 15.08840934 14823,6917.878000000002,95.437,540.682,538.803,0.0
53838.0,STARLINK-4773,PAYLOAD,2022-12-19 18:12:44,15.08844029,0.0001295,53.2155,173.2403,62.9623,297.1501,1.3403e-05,-7.5e-07,0.0,0 STARLINK-4773,1 53838U 22114W   22353.75885368 -.00000075  00000-0  13403-4 0  9990,2 53838  53.2155 173.2403 0001295  62.9623 297.1501 15.08844029 15445,6917.868,95.437,540.629,538.837,0.0
53838.0,STARLINK-4773,PAYLOAD,2022-12-20 11:41:59,15.08846238,0.0001322,53.2161,169.9694,63.7949,296.3179,2.0419e-05,3.7e-07,0.0,0 STARLINK-4773,1 53838U 22114W   22354.48748923  .00000037  00000-0  20419-4 0  9998,2 53838  53.2161 169.9694 0001322  63.7949 296.3179 15.08846238 15016,6917.861,95.437,540.641,538.812,0.0
